OBJECT_NAME,OBJECT_ID,EPOCH,MEAN_MOTION,ECCENTRICITY,INCLINATION,RA_OF_ASC_NODE,ARG_OF_PERICENTER,MEAN_ANOMALY,EPHEMERIS_TYPE,CLASSIFICATION_TYPE,NORAD_CAT_ID,ELEMENT_SET_NO,REV_AT_EPOCH,BSTAR,MEAN_MOTION_DOT,MEAN_MOTION_DDOT
STARLINK-4098,2022-083X,2026-06-26T21:27:58.415904,15.08823366,.00013194,53.1615,33.7306,97.7845,262.3296,0,U,53153,999,21784,.2616534E-5,-.246E-5,0
STARLINK-4077,2022-083Y,2026-06-26T21:38:34.467648,15.08828690,.0001176,53.1605,33.6953,89.7052,270.4074,0,U,53154,999,21784,-.17615458E-4,-.568E-5,0
STARLINK-4088,2022-083Z,2026-06-26T21:17:22.474752,15.08830022,.00015638,53.1635,33.7628,92.0037,268.1133,0,U,53155,999,21848,-.27036541E-4,-.718E-5,0
STARLINK-4087,2022-083AA,2026-06-26T21:01:27.697728,15.08827981,.00013011,53.1606,33.6866,93.1599,266.9541,0,U,53156,999,21784,-.50459472E-4,-.1091E-4,0
STARLINK-4054,2022-083AC,2026-06-26T21:22:40.406016,15.08829003,.00012727,53.1606,33.7450,87.8542,272.2595,0,U,53158,999,21784,-.78449612E-4,-.1536E-4,0
STARLINK-4111,2022-083AD,2026-06-26T20:56:10.655520,15.08835399,.00015108,53.1616,33.8283,93.8363,266.2801,0,U,53159,999,21784,-.21779378E-3,-.3752E-4,0
STARLINK-4096,2022-083AE,2026-06-26T21:12:03.937824,15.08835007,.00015633,53.1610,33.7783,83.1756,276.9413,0,U,53160,999,21784,.13122231E-3,.1801E-4,0
STARLINK-4055,2022-083AF,2026-06-26T20:40:16.611168,15.08834067,.00008047,53.1589,33.8791,85.8998,274.2086,0,U,53161,999,21784,.3306637E-4,.238E-5,0
STARLINK-4114,2022-083AG,2026-06-26T21:02:51.717408,15.08825814,.00014188,53.1596,33.8177,95.8772,264.2382,0,U,53162,999,21784,-.1231767E-3,-.2247E-4,0
STARLINK-4104,2022-083AH,2026-06-26T20:50:54.395232,15.08829797,.00012648,53.1611,33.9903,93.6129,266.5007,0,U,53163,999,21784,-.13185774E-4,-.498E-5,0
STARLINK-4116,2022-083AJ,2026-06-26T20:45:34.772256,15.08833979,.00013377,53.1604,33.8635,89.5207,270.5938,0,U,53164,999,21784,-.14740046E-4,-.523E-5,0
STARLINK-4090,2022-083AK,2026-06-26T21:59:46.163328,15.08833187,.00012374,53.1588,33.6281,88.7984,271.3149,0,U,53165,999,21785,.12066862E-4,-.96E-6,0
STARLINK-4110,2022-083AL,2026-06-26T22:00:01.999584,15.64533113,.00008169,53.2175,16.3345,48.8841,200.8153,0,U,53166,999,590,.17364315E-2,.173632E-2,0
STARLINK-3683,2022-083AM,2026-06-26T19:14:50.188992,15.08820242,.00015456,53.1613,19.1332,80.9842,279.1325,0,U,53167,999,21803,.10156628E-3,.1328E-4,0
STARLINK-4105,2022-083AN,2026-06-26T22:05:04.092000,15.08834229,.00013353,53.1610,33.6143,84.5121,275.6022,0,U,53168,999,21785,.53476704E-4,.563E-5,0
STARLINK-4117,2022-083AP,2026-06-26T20:18:28.061568,15.08835032,.00011231,53.1618,19.2058,90.4327,269.6793,0,U,53169,999,21803,-.11590907E-3,-.2132E-4,0
STARLINK-4095,2022-083AQ,2026-06-26T21:10:05.083392,15.08827105,.00013373,53.1615,28.7380,90.7027,269.4117,0,U,53170,999,21791,-.34564793E-4,-.838E-5,0
STARLINK-4052,2022-083AR,2026-06-26T22:08:59.970048,15.08841481,.00012156,53.1614,3.3616,101.9259,258.1869,0,U,53171,999,21826,-.27223228E-4,-.721E-5,0
STARLINK-4299,2022-083AS,2026-06-26T20:59:26.234016,15.08859589,.00014563,53.1619,28.7314,89.8487,270.2672,0,U,53172,999,21790,.36300562E-3,.5497E-4,0
STARLINK-4300,2022-083AT,2026-06-26T23:04:02.232480,15.08826023,.00011046,53.1597,8.4176,90.3610,269.7508,0,U,53173,999,21819,-.67745396E-4,-.1365E-4,0
STARLINK-4205,2022-083AU,2026-06-26T22:00:01.999584,15.29713106,.00012207,53.1645,42.3788,98.0826,153.2887,0,U,53174,999,574,.25257698E-1,.796304E-2,0
STARLINK-4292,2022-083AV,2026-06-26T22:03:43.553376,15.08865518,.00015463,53.1617,43.6190,84.2209,275.8959,0,U,53175,999,21770,-.46483116E-3,-.7684E-4,0
STARLINK-4294,2022-083AW,2026-06-26T22:09:41.415264,15.08837719,.00011205,53.1607,18.5106,87.1083,273.0037,0,U,53176,999,21805,-.70470578E-4,-.1409E-4,0
STARLINK-4298,2022-083AX,2026-06-26T19:42:39.102624,15.08828792,.00012199,53.1603,9.0448,89.9883,270.1248,0,U,53177,999,21817,.10297146E-4,-.124E-5,0
STARLINK-4280,2022-083AY,2026-06-26T21:54:28.586304,15.08827060,.00012099,53.1608,33.6469,90.9520,269.1611,0,U,53178,999,21783,-.17941902E-3,-.3141E-4,0
STARLINK-4276,2022-083AZ,2026-06-26T21:43:48.254304,15.08827544,.0001314,53.1601,353.2746,92.9912,267.1230,0,U,53179,999,21840,-.29913663E-4,-.764E-5,0
STARLINK-4258,2022-083BA,2026-06-26T22:20:56.599296,15.08832181,.00011108,53.1602,353.4319,82.9113,277.2005,0,U,53180,999,21840,.17688195E-4,-.6E-7,0
STARLINK-4278,2022-083BC,2026-06-26T22:28:35.418720,15.15353107,.00010356,53.1604,8.3860,111.8655,248.2450,0,U,53182,999,21819,.15284517E-1,.303998E-2,0
STARLINK-4268,2022-083BD,2026-06-26T21:24:38.881152,15.08832824,.00012523,53.1612,358.6510,87.7061,272.4074,0,U,53183,999,21832,.4412517E-5,-.218E-5,0
STARLINK-4257,2022-083BE,2026-06-26T18:27:43.538688,15.08821921,.00013428,53.1595,353.8713,123.9983,236.1136,0,U,53184,999,21839,-.12560655E-3,-.2286E-4,0
