STARLINK-4098           
1 53153U 22083X   26177.89442611 -.00000246  00000+0  26165-5 0  9997
2 53153  53.1615  33.7306 0001319  97.7845 262.3296 15.08823366217840
STARLINK-4077           
1 53154U 22083Y   26177.90178782 -.00000568  00000+0 -17615-4 0  9992
2 53154  53.1605  33.6953 0001176  89.7052 270.4074 15.08828690217848
STARLINK-4088           
1 53155U 22083Z   26177.88706568 -.00000718  00000+0 -27037-4 0  9995
2 53155  53.1635  33.7628 0001563  92.0037 268.1133 15.08830022218485
STARLINK-4087           
1 53156U 22083AA  26177.87601502 -.00001091  00000+0 -50459-4 0  9996
2 53156  53.1606  33.6866 0001301  93.1599 266.9541 15.08827981217840
STARLINK-4054           
1 53158U 22083AC  26177.89074544 -.00001536  00000+0 -78450-4 0  9995
2 53158  53.1606  33.7450 0001272  87.8542 272.2595 15.08829003217843
STARLINK-4111           
1 53159U 22083AD  26177.87234555 -.00003752  00000+0 -21779-3 0  9997
2 53159  53.1616  33.8283 0001510  93.8363 266.2801 15.08835399217841
STARLINK-4096           
1 53160U 22083AE  26177.88337891  .00001801  00000+0  13122-3 0  9991
2 53160  53.1610  33.7783 0001563  83.1756 276.9413 15.08835007217840
STARLINK-4055           
1 53161U 22083AF  26177.86130337  .00000238  00000+0  33066-4 0  9999
2 53161  53.1589  33.8791 0000804  85.8998 274.2086 15.08834067217842
STARLINK-4114           
1 53162U 22083AG  26177.87698747 -.00002247  00000+0 -12318-3 0  9995
2 53162  53.1596  33.8177 0001418  95.8772 264.2382 15.08825814217840
STARLINK-4104           
1 53163U 22083AH  26177.86868513 -.00000498  00000+0 -13186-4 0  9996
2 53163  53.1611  33.9903 0001264  93.6129 266.5007 15.08829797217841
STARLINK-4116           
1 53164U 22083AJ  26177.86498579 -.00000523  00000+0 -14740-4 0  9994
2 53164  53.1604  33.8635 0001337  89.5207 270.5938 15.08833979217842
STARLINK-4090           
1 53165U 22083AK  26177.91650652 -.00000096  00000+0  12067-4 0  9997
2 53165  53.1588  33.6281 0001237  88.7984 271.3149 15.08833187217856
STARLINK-4110           
1 53166U 22083AL  26177.91668981  .00173632  00000+0  17364-2 0  9991
2 53166  53.2175  16.3345 0000816  48.8841 200.8153 15.64533113  5901
STARLINK-3683           
1 53167U 22083AM  26177.80196978  .00001328  00000+0  10157-3 0  9998
2 53167  53.1613  19.1332 0001545  80.9842 279.1325 15.08820242218033
STARLINK-4105           
1 53168U 22083AN  26177.92018625  .00000563  00000+0  53477-4 0  9997
2 53168  53.1610  33.6143 0001335  84.5121 275.6022 15.08834229217853
STARLINK-4117           
1 53169U 22083AP  26177.84615812 -.00002132  00000+0 -11591-3 0  9996
2 53169  53.1618  19.2058 0001123  90.4327 269.6793 15.08835032218038
STARLINK-4095           
1 53170U 22083AQ  26177.88200328 -.00000838  00000+0 -34565-4 0  9992
2 53170  53.1615  28.7380 0001337  90.7027 269.4117 15.08827105217913
STARLINK-4052           
1 53171U 22083AR  26177.92291632 -.00000721  00000+0 -27223-4 0  9990
2 53171  53.1614   3.3616 0001215 101.9259 258.1869 15.08841481218262
STARLINK-4299           
1 53172U 22083AS  26177.87460919  .00005497  00000+0  36301-3 0  9990
2 53172  53.1619  28.7314 0001456  89.8487 270.2672 15.08859589217903
STARLINK-4300           
1 53173U 22083AT  26177.96113695 -.00001365  00000+0 -67745-4 0  9996
2 53173  53.1597   8.4176 0001104  90.3610 269.7508 15.08826023218195
STARLINK-4205           
1 53174U 22083AU  26177.91668981  .00796304  00000+0  25258-1 0  9997
2 53174  53.1645  42.3788 0001220  98.0826 153.2887 15.29713106  5741
STARLINK-4292           
1 53175U 22083AV  26177.91925409 -.00007684  00000+0 -46483-3 0  9992
2 53175  53.1617  43.6190 0001546  84.2209 275.8959 15.08865518217709
STARLINK-4294           
1 53176U 22083AW  26177.92339601 -.00001409  00000+0 -70471-4 0  9991
2 53176  53.1607  18.5106 0001120  87.1083 273.0037 15.08837719218055
STARLINK-4298           
1 53177U 22083AX  26177.82128591 -.00000124  00000+0  10297-4 0  9997
2 53177  53.1603   9.0448 0001219  89.9883 270.1248 15.08828792218179
STARLINK-4280           
1 53178U 22083AY  26177.91283086 -.00003141  00000+0 -17942-3 0  9995
2 53178  53.1608  33.6469 0001209  90.9520 269.1611 15.08827060217831
STARLINK-4276           
1 53179U 22083AZ  26177.90541961 -.00000764  00000+0 -29914-4 0  9995
2 53179  53.1601 353.2746 0001314  92.9912 267.1230 15.08827544218404
STARLINK-4258           
1 53180U 22083BA  26177.93121064 -.00000006  00000+0  17688-4 0  9991
2 53180  53.1602 353.4319 0001110  82.9113 277.2005 15.08832181218406
STARLINK-4278           
1 53182U 22083BC  26177.93652105  .00303998  00000+0  15285-1 0  9991
2 53182  53.1604   8.3860 0001035 111.8655 248.2450 15.15353107218198
STARLINK-4268           
1 53183U 22083BD  26177.89211668 -.00000218  00000+0  44125-5 0  9991
2 53183  53.1612 358.6510 0001252  87.7061 272.4074 15.08832824218320
STARLINK-4257           
1 53184U 22083BE  26177.76925392 -.00002286  00000+0 -12561-3 0  9999
2 53184  53.1595 353.8713 0001342 123.9983 236.1136 15.08821921218398
